ST-2                    
1 37606U 11022B   21293.48284787 -.00000215  00000-0  00000-0 0  9992
2 37606   0.0149 240.3726 0002319 345.9045  64.7326  1.00270005 38225
CHINASAT 10 (ZX 10)     
1 37677U 11026A   21293.51301816 -.00000355  00000-0  00000-0 0  9996
2 37677   0.0638 253.2673 0005049 305.6185 125.5185  1.00270685 37942
SJ-11-03                
1 37730U 11030A   21293.46649228  .00000085  00000-0  26300-4 0  9991
2 37730  97.8304 315.8831 0009176  16.1783 343.9716 14.60897811548624
TIANLIAN 1-02           
1 37737U 11032A   21293.58865060 -.00000017  00000-0  00000-0 0  9998
2 37737   2.5990  74.8195 0020298 106.4912 230.8382  1.00272402 37668
GLOBALSTAR M083         
1 37739U 11033A   21293.36674326 -.00000070  00000-0  18909-3 0  9999
2 37739  51.9838 152.1809 0000957  98.9142  71.4235 12.62264648478153
GLOBALSTAR M088         
1 37740U 11033B   21293.31112888 -.00000122  00000-0 -10122-3 0  9994
2 37740  51.9744  58.9633 0000717 135.9658 260.8207 12.62251266473696
GLOBALSTAR M091         
1 37741U 11033C   21293.41250071 -.00000109  00000-0 -29842-4 0  9998
2 37741  52.0024  19.8191 0000644 128.2985 309.4772 12.62268031474496
GLOBALSTAR M085         
1 37742U 11033D   21293.49384913 -.00000091  00000-0  70970-4 0  9997
2 37742  51.9881 331.7943 0000387 105.1924  43.2382 12.62266955475010
GLOBALSTAR M081         
1 37743U 11033E   21293.52029432 -.00000082  00000-0  12395-3 0  9990
2 37743  51.9974 333.6777 0000307 140.0324   7.8066 12.62256694475164
GLOBALSTAR M089         
1 37744U 11033F   21293.47807788 -.00000100  00000-0  20200-4 0  9999
2 37744  51.9925 288.2840 0000556  34.7665 101.8231 12.62267310476000
GSAT-12                 
1 37746U 11034A   21293.17154762  .00000121  00000-0  00000-0 0  9990
2 37746   0.7739  95.1743 0007595  10.7773  32.5999  1.00271249 26444
SES-3                   
1 37748U 11035A   21293.56550774 -.00000105  00000-0  00000-0 0  9992
2 37748   0.0547  63.9906 0002995 150.1437 275.7096  1.00272563 37558
KAZSAT-2                
1 37749U 11035B   21293.55257681 -.00000201  00000-0  00000-0 0  9990
2 37749   0.0389 292.6620 0001301 337.1271  44.9031  1.00270685 36333
NAVSTAR 66 (USA 232)    
1 37753U 11036A   21293.18483494 -.00000099  00000-0  00000-0 0  9993
2 37753  56.4874  38.0742 0108966  50.2413 308.8270  2.00564009 75152
BEIDOU 9                
1 37763U 11038A   21293.53619347 -.00000058  00000-0  00000-0 0  9998
2 37763  54.4669 180.9007 0086441 226.4868 269.5902  1.00284448 37594
SJ-11-02                
1 37765U 11039A   21293.51682999  .00000114  00000-0  32972-4 0  9991
2 37765  98.4745 132.9305 0011291 159.0984 201.0686 14.61679002545429
ASTRA 1N                
1 37775U 11041A   21293.30935230  .00000116  00000-0  00000-0 0  9996
2 37775   0.0742  59.1860 0000800 117.2973 343.0999  1.00274895 27474
BSAT-3C (JCSAT-110R)    
1 37776U 11041B   21293.32740646 -.00000355  00000-0  00000-0 0  9990
2 37776   0.0765  78.9680 0000086 212.5010 325.3914  1.00272090 33423
PAKSAT-1R               
1 37779U 11042A   21293.52843189  .00000150  00000-0  00000-0 0  9994
2 37779   0.0299 295.1434 0001523 350.2841 332.0306  1.00274622 37424
HAIYANG-2A              
1 37781U 11043A   21293.52475202 -.00000018  00000-0  25521-4 0  9998
2 37781  99.3182 298.5751 0001554 105.4229 254.7094 13.78724578512321
NIGERIASAT-2            
1 37789U 11044B   21293.48094325  .00000035  00000-0  15762-4 0  9999
2 37789  97.8342 323.8724 0012204  77.4324 282.8246 14.62180635542812
NIGERIASAT-X            
1 37790U 11044C   21293.44931759  .00000046  00000-0  19171-4 0  9998
2 37790  97.9307 342.1649 0011001 286.5561  73.4434 14.58648401542285
RASAT                   
1 37791U 11044D   21293.48908843  .00000113  00000-0  30106-4 0  9997
2 37791  98.1025  25.1875 0022424 163.0360 197.1595 14.64862280543982
APRIZESAT 5             
1 37792U 11044E   21293.52857470  .00000162  00000-0  31484-4 0  9996
2 37792  98.3570 156.4139 0059020  49.1452 311.4850 14.75532823547617
APRIZESAT 6             
1 37793U 11044F   21293.53350498  .00000131  00000-0  28965-4 0  9992
2 37793  98.4216 132.1723 0048037  94.0366 320.3480 14.72582964546553
CHINASAT 1A (ZX 1A)     
1 37804U 11047A   21293.51349840 -.00000341  00000-0  00000-0 0  9995
2 37804   0.0085  24.7440 0002127 266.0835  53.0582  1.00268371 10305
SES-2                   
1 37809U 11049A   21293.50349993 -.00000199  00000-0  00000-0 0  9991
2 37809   0.0175 288.0499 0002788 290.4897 264.9248  1.00273663 36918
ARABSAT-5C              
1 37810U 11049B   21293.30952674  .00000120  00000-0  00000-0 0  9990
2 37810   0.0624 353.3688 0007118 206.0845 320.9957  1.00273095 37003
EUTELSAT 7 WEST A       
1 37816U 11051A   21293.42132615 -.00000063  00000-0  00000-0 0  9994
2 37816   0.0915  52.8903 0006002 150.6033 329.9837  1.00272406 36849
TACSAT 4                
1 37818U 11052A   21293.18417962 -.00000557  00000-0 -46162-3 0  9992
2 37818  63.0016 180.0700 4649173 233.8157 334.7682  6.02672502221439
QUETZSAT 1              
1 37826U 11054A   21293.50550597 -.00000244  00000-0  00000-0 0  9991
2 37826   0.0132  50.3188 0003019 161.2211 282.6397  1.00271803 32842
INTELSAT 18 (IS-18)     
1 37834U 11056A   21293.44285609  .00000049  00000-0  00000-0 0  9996
2 37834   0.0301 337.6866 0002010 229.5634 161.3291  1.00270739 36757
EUTELSAT 16A            
1 37836U 11057A   21293.30874177  .00000100  00000-0  00000-0 0  9996
2 37836   0.0714 359.0640 0004902 215.7344 301.3796  1.00273494 28918
MEGHA-TROPIQUES         
1 37838U 11058A   21293.47265604  .00000303  00000-0  21791-4 0  9995
2 37838  19.9782 295.2396 0010585 170.2980 189.7630 14.09741897449875
JUGNU                   
1 37839U 11058B   21293.42466418  .00000337  00000-0  38026-4 0  9993
2 37839  19.9599 191.2717 0018878  30.7597 126.2046 14.12729856518151
SRMSAT                  
1 37841U 11058D   21293.28205252  .00000327  00000-0  34670-4 0  9997
2 37841  19.9719 266.6039 0011751 224.3988 269.1139 14.10707818517285
VIASAT-1                
1 37843U 11059A   21293.55517128 -.00000026  00000-0  00000-0 0  9991
2 37843   0.0205 240.8281 0002274 330.3290 262.8384  1.00271355 30273
GSAT0101 (GALILEO-PFM)  
1 37846U 11060A   21292.75097263 -.00000104  00000-0  00000-0 0  9997
2 37846  56.8985  27.8925 0000492   8.4423 351.5702  1.70475225 62116
GSAT0102 (GALILEO-FM2)  
1 37847U 11060B   21292.11594878 -.00000105  00000-0  00000+0 0  9992
2 37847  56.8992  27.9093 0002178 296.4271  80.2529  1.70475448 62238
SUOMI NPP               
1 37849U 11061A   21293.49639008  .00000006  00000-0  23536-4 0  9995
2 37849  98.7461 230.5413 0000701  61.9094  69.7756 14.19523696517158
M-CUBED & EXP-1 PRIME   
1 37855U 11061F   21293.42436962  .00004940  00000-0  23860-3 0  9999
2 37855 101.7226 281.7648 0164966  58.8271 302.8999 15.08378952545011
COSMOS 2476 [GLONASS-M] 
1 37867U 11064A   21293.37356154  .00000071  00000-0  00000-0 0  9992
2 37867  64.5905 130.5591 0019465 231.7689 128.6807  2.13101875 77573
COSMOS 2477 [GLONASS-M] 
1 37868U 11064B   21292.67872541  .00000077  00000-0  00000-0 0  9994
2 37868  64.5975 130.6456 0016987 232.4845 133.1826  2.13101763 77512
COSMOS 2475 [GLONASS-M] 
1 37869U 11064C   21292.68043257  .00000077  00000-0  00000-0 0  9990
2 37869  64.6044 130.6508 0020445 254.1592  70.6492  2.13102052 77519
YAOGAN 12               
1 37875U 11066B   21293.47954245  .00002097  00000-0  90442-4 0  9992
2 37875  97.3440   5.9750 0008290 201.3421 258.6223 15.23608045553619
CHUANGXIN 1-03 (CX-1-03)
1 37930U 11068A   21293.50156684  .00000021  00000-0  25241-4 0  9991
2 37930  98.6752 284.2934 0016072  60.7215 299.5573 14.29817154519951
SHIYAN 4 (SY-4)         
1 37931U 11068B   21293.51652709  .00000065  00000-0  42416-4 0  9993
2 37931  98.6798 284.6502 0024456  90.4036 269.9944 14.29879376517633
ASIASAT 7               
1 37933U 11069A   21292.22940060 -.00000342  00000-0  00000-0 0  9991
2 37933   0.0732  70.3327 0001897  81.2860  64.4020  1.00269551 36397
YAOGAN 13               
1 37941U 11072A   21293.52064885  .00001525  00000-0  75705-4 0  9991
2 37941  97.6002 236.3055 0002993 118.7242 351.3762 15.19242947548358
BEIDOU 10               
1 37948U 11073A   21293.46808935 -.00000152  00000-0  00000-0 0  9992
2 37948  50.7527 292.1351 0078870 218.0135 143.0564  1.00264916 36351
LUCH 5A                 
1 37951U 11074B   21293.58494966 -.00000046  00000-0  00000-0 0  9997
2 37951   4.4182 102.5425 0002787  66.9541 237.2486  1.00271894 36137
SSOT                    
1 38011U 11076E   21293.56122038  .00000305  00000-0  44846-4 0  9990
2 38011  97.8211   6.7943 0001528  87.6163 272.5228 14.82041225532501
PLEIADES 1A             
1 38012U 11076F   21293.54938541  .00000024  00000-0  15037-4 0  9991
2 38012  98.1904   7.1025 0001573  78.1825 281.9550 14.58562262524102
NIGCOMSAT 1R            
1 38014U 11077A   21293.52930407  .00000141  00000-0  00000-0 0  9995
2 38014   0.0106  74.4675 0000814  59.0487 128.7302  1.00274270 35907
ZIYUAN 1-02C (ZY 1-02C) 
1 38038U 11079A   21293.62653014  .00000072  00000-0  40632-4 0  9992
2 38038  98.6242 353.9182 0005972 253.0220 107.0314 14.35288584515086
GLOBALSTAR M084         
1 38040U 11080A   21293.34100389 -.00000076  00000-0  15759-3 0  9994
2 38040  51.9989 155.2869 0000783  70.0978 101.8825 12.62269064453963
GLOBALSTAR M080         
1 38041U 11080B   21293.39335619 -.00000071  00000-0  18522-3 0  9992
2 38041  52.0041 156.2638 0000753  66.8001 103.7053 12.62265337454095
GLOBALSTAR M082         
1 38042U 11080C   21293.24845294 -.00000097  00000-0  38236-4 0  9995
2 38042  52.0056 112.0093 0001218 109.8035  61.1765 12.62267035454789
GLOBALSTAR M092         
1 38043U 11080D   21293.45996024 -.00000096  00000-0  45335-4 0  9994
2 38043  52.0076 201.6704 0000976  54.0346 118.1046 12.62269494453260
